ONEWEB-0670             
1 55829U 23029AK  24025.76071062 -.00000035  00000+0 -12806-3 0  9996
2 55829  87.8974 103.5754 0002169 116.7653 243.3698 13.14502519 44684
ONEWEB-0671             
1 55830U 23029AL  24025.80567301  .00000036  00000+0  57649-4 0  9993
2 55830  87.9203 118.8353 0002001 110.4573 249.6775 13.19725191 43708
ONEWEB-0672             
1 55831U 23029AM  24025.69356615  .00001017  00000+0  24696-2 0  9999
2 55831  87.9171  88.2961 0001734 102.5168 257.6159 13.20766267 45845
ONEWEB-0673             
1 55832U 23029AN  24025.78199215 -.00000004  00000+0 -43354-4 0  9992
2 55832  87.9203 118.8088 0002093 110.1073 250.0285 13.19724026 43706
ONEWEB-0674             
1 55833U 23029AP  24025.72899496  .00000214  00000+0  54343-3 0  9995
2 55833  87.8965 103.5944 0002037 119.9094 240.2238 13.14502153 44666
ONEWEB-0675             
1 55834U 23029AQ  24026.17686042  .00000053  00000+0  10006-3 0  9996
2 55834  87.9205 118.7570 0001723  91.6836 268.4494 13.19725356 44482
ONEWEB-0720             
1 55835U 23029AR  24025.78988103  .00000126  00000+0  28157-3 0  9993
2 55835  87.9206 118.8363 0002392 104.2448 255.8951 13.19725369 43647
ONEWEB-0537             
1 56046U 23043A   24025.60956108 -.00000066  00000+0 -20723-3 0  9991
2 56046  87.9034  42.6289 0001670  78.6039 281.5279 13.16593247 44016
